{"type": "FeatureCollection", "features": [ {"type": "Feature", "properties": {"norad_id": 66877, "name": "ZQ-3 R/B", "group": "last-30-days", "lat": -41.32566267817227, "lon": -110.26438289349939, "alt_km": 148.33828577865188, "timestamp": "2025-12-18T15:47:09.961198+00:00", "meta": {"OBJECT_NAME": "ZQ-3 R/B", "OBJECT_ID": "2025-282A", "EPOCH": "2025-12-18T06:33:11.576160", "MEAN_MOTION": 14.7082804, "ECCENTRICITY": 0.07320142, "INCLINATION": 56.9499, "RA_OF_ASC_NODE": 36.3088, "ARG_OF_PERICENTER": 229.6301, "MEAN_ANOMALY": 123.8586, "EPHEMERIS_TYPE": 0, "CLASSIFICATION_TYPE": "U", "NORAD_CAT_ID": 66877, "ELEMENT_SET_NO": 999, "REV_AT_EPOCH": 220, "BSTAR": 0.00019137253, "MEAN_MOTION_DOT": 0.01026202, "MEAN_MOTION_DDOT": 7.67828e-06}, "tle": {"line1": "1 66877U 25282A   25352.27305065  .01026202  76783-5  19137-3 0  9991", "line2": "2 66877  56.9499  36.3088 0732014 229.6301 123.8586 14.70828040  2207"}}, "geometry": {"type": "Point", "coordinates": [-110.26438289349939, -41.32566267817227]}}, {"type": "Feature", "properties": {"norad_id": 66878, "name": "STARLINK-35866", "group": "last-30-days", "lat": -0.5390273457269604, "lon": -135.5190057967342, "alt_km": 334.44677871346266, "timestamp": "2025-12-18T15:47:09.961209+00:00", "meta": {"OBJECT_NAME": "STARLINK-35866", "OBJECT_ID": "2025-283A", "EPOCH": "2025-12-18T06:00:02.999808", "MEAN_MOTION": 15.80228542, "ECCENTRICITY": 9.827e-05, "INCLINATION": 53.1554, "RA_OF_ASC_NODE": 46.1172, "ARG_OF_PERICENTER": 71.9598, "MEAN_ANOMALY": 308.6916, "EPHEMERIS_TYPE": 0, "CLASSIFICATION_TYPE": "U", "NORAD_CAT_ID": 66878, "ELEMENT_SET_NO": 999, "REV_AT_EPOCH": 331, "BSTAR": -0.0079139781, "MEAN_MOTION_DOT": -0.0135482, "MEAN_MOTION_DDOT": 0}, "tle": {"line1": "1 66878U 25283A   25352.25003472 -.01354820  00000+0 -79140-2 0  9992", "line2": "2 66878  53.1554  46.1172 0000982  71.9598 308.6916 15.80228542  3316"}}, "geometry": {"type": "Point", "coordinates": [-135.5190057967342, -0.5390273457269604]}}, {"type": "Feature", "properties": {"norad_id": 66879, "name": "STARLINK-35749", "group": "last-30-days", "lat": -4.321521137199359, "lon": -132.68512178728702, "alt_km": 335.2227090306442, "timestamp": "2025-12-18T15:47:09.961219+00:00", "meta": {"OBJECT_NAME": "STARLINK-35749", "OBJECT_ID": "2025-283B", "EPOCH": "2025-12-18T06:00:02.999808", "MEAN_MOTION": 15.80126049, "ECCENTRICITY": 0.00011487, "INCLINATION": 53.155, "RA_OF_ASC_NODE": 46.1065, "ARG_OF_PERICENTER": 69.1895, "MEAN_ANOMALY": 316.3513, "EPHEMERIS_TYPE": 0, "CLASSIFICATION_TYPE": "U", "NORAD_CAT_ID": 66879, "ELEMENT_SET_NO": 999, "REV_AT_EPOCH": 331, "BSTAR": -0.0080460642, "MEAN_MOTION_DOT": -0.01369275, "MEAN_MOTION_DDOT": 0}, "tle": {"line1": "1 66879U 25283B   25352.25003472 -.01369275  00000+0 -80461-2 0  9991", "line2": "2 66879  53.1550  46.1065 0001148  69.1895 316.3513 15.80126049  3316"}}, "geometry": {"type": "Point", "coordinates": [-132.68512178728702, -4.321521137199359]}}, {"type": "Feature", "properties": {"norad_id": 66880, "name": "STARLINK-35844", "group": "last-30-days", "lat": -2.3795633453078486, "lon": -134.1422252813109, "alt_km": 334.84456319700075, "timestamp": "2025-12-18T15:47:09.961230+00:00", "meta": {"OBJECT_NAME": "STARLINK-35844", "OBJECT_ID": "2025-283C", "EPOCH": "2025-12-18T06:00:02.999808", "MEAN_MOTION": 15.80187948, "ECCENTRICITY": 9.804e-05, "INCLINATION": 53.1554, "RA_OF_ASC_NODE": 46.1124, "ARG_OF_PERICENTER": 72.4855, "MEAN_ANOMALY": 310.5328, "EPHEMERIS_TYPE": 0, "CLASSIFICATION_TYPE": "U", "NORAD_CAT_ID": 66880, "ELEMENT_SET_NO": 999, "REV_AT_EPOCH": 331, "BSTAR": -0.0079855558, "MEAN_MOTION_DOT": -0.01363467, "MEAN_MOTION_DDOT": 0}, "tle": {"line1": "1 66880U 25283C   25352.25003472 -.01363467  00000+0 -79856-2 0  9996", "line2": "2 66880  53.1554  46.1124 0000980  72.4855 310.5328 15.80187948  3319"}}, "geometry": {"type": "Point", "coordinates": [-134.1422252813109, -2.3795633453078486]}}, {"type": "Feature", "properties": {"norad_id": 66881, "name": "STARLINK-35860", "group": "last-30-days", "lat": -6.014085482367441, "lon": -131.40699302798384, "alt_km": 335.4337603283566, "timestamp": "2025-12-18T15:47:09.961240+00:00", "meta": {"OBJECT_NAME": "STARLINK-35860", "OBJECT_ID": "2025-283D", "EPOCH": "2025-12-18T06:00:02.999808", "MEAN_MOTION": 15.80107528, "ECCENTRICITY": 9.897e-05, "INCLINATION": 53.155, "RA_OF_ASC_NODE": 46.1019, "ARG_OF_PERICENTER": 85.3537, "MEAN_ANOMALY": 302.341, "EPHEMERIS_TYPE": 0, "CLASSIFICATION_TYPE": "U", "NORAD_CAT_ID": 66881, "ELEMENT_SET_NO": 999, "REV_AT_EPOCH": 331, "BSTAR": -0.008095298, "MEAN_MOTION_DOT": -0.01375603, "MEAN_MOTION_DDOT": 0}, "tle": {"line1": "1 66881U 25283D   25352.25003472 -.01375603  00000+0 -80953-2 0  9992", "line2": "2 66881  53.1550  46.1019 0000989  85.3537 302.3410 15.80107528  3315"}}, "geometry": {"type": "Point", "coordinates": [-131.40699302798384, -6.014085482367441]}}, {"type": "Feature", "properties": {"norad_id": 66882, "name": "STARLINK-35912", "group": "last-30-days", "lat": -7.819235620741008, "lon": -130.03187408051576, "alt_km": 335.80357322910004, "timestamp": "2025-12-18T15:47:09.961254+00:00", "meta": {"OBJECT_NAME": "STARLINK-35912", "OBJECT_ID": "2025-283E", "EPOCH": "2025-12-18T06:00:02.999808", "MEAN_MOTION": 15.800703, "ECCENTRICITY": 0.00010865, "INCLINATION": 53.1552, "RA_OF_ASC_NODE": 46.0975, "ARG_OF_PERICENTER": 76.7404, "MEAN_ANOMALY": 313.282, "EPHEMERIS_TYPE": 0, "CLASSIFICATION_TYPE": "U", "NORAD_CAT_ID": 66882, "ELEMENT_SET_NO": 999, "REV_AT_EPOCH": 331, "BSTAR": -0.0081808275, "MEAN_MOTION_DOT": -0.01386474, "MEAN_MOTION_DDOT": 0}, "tle": {"line1": "1 66882U 25283E   25352.25003472 -.01386474  00000+0 -81808-2 0  9991", "line2": "2 66882  53.1552  46.0975 0001086  76.7404 313.2820 15.80070300  3317"}}, "geometry": {"type": "Point", "coordinates": [-130.03187408051576, -7.819235620741008]}}, {"type": "Feature", "properties": {"norad_id": 66883, "name": "STARLINK-35947", "group": "last-30-days", "lat": -9.680147447967546, "lon": -128.59817533724137, "alt_km": 336.1789175323929, "timestamp": "2025-12-18T15:47:09.961264+00:00", "meta": {"OBJECT_NAME": "STARLINK-35947", "OBJECT_ID": "2025-283F", "EPOCH": "2025-12-18T06:00:02.999808", "MEAN_MOTION": 15.8001785, "ECCENTRICITY": 8.364e-05, "INCLINATION": 53.1554, "RA_OF_ASC_NODE": 46.0928, "ARG_OF_PERICENTER": 85.986, "MEAN_ANOMALY": 306.4619, "EPHEMERIS_TYPE": 0, "CLASSIFICATION_TYPE": "U", "NORAD_CAT_ID": 66883, "ELEMENT_SET_NO": 999, "REV_AT_EPOCH": 336, "BSTAR": -0.0082307702, "MEAN_MOTION_DOT": -0.01390859, "MEAN_MOTION_DDOT": 0}, "tle": {"line1": "1 66883U 25283F   25352.25003472 -.01390859  00000+0 -82308-2 0  9990", "line2": "2 66883  53.1554  46.0928 0000836  85.9860 306.4619 15.80017850  3364"}}, "geometry": {"type": "Point", "coordinates": [-128.59817533724137, -9.680147447967546]}}, {"type": "Feature", "properties": {"norad_id": 66884, "name": "STARLINK-36057", "group": "last-30-days", "lat": -13.33793397533339, "lon": -125.71642480368673, "alt_km": 336.87400797590453, "timestamp": "2025-12-18T15:47:09.961274+00:00", "meta": {"OBJECT_NAME": "STARLINK-36057", "OBJECT_ID": "2025-283G", "EPOCH": "2025-12-18T06:00:02.999808", "MEAN_MOTION": 15.79924155, "ECCENTRICITY": 8.201e-05, "INCLINATION": 53.1551, "RA_OF_ASC_NODE": 46.0822, "ARG_OF_PERICENTER": 91.1417, "MEAN_ANOMALY": 306.0859, "EPHEMERIS_TYPE": 0, "CLASSIFICATION_TYPE": "U", "NORAD_CAT_ID": 66884, "ELEMENT_SET_NO": 999, "REV_AT_EPOCH": 331, "BSTAR": -0.0083916974, "MEAN_MOTION_DOT": -0.01409571, "MEAN_MOTION_DDOT": 0}, "tle": {"line1": "1 66884U 25283G   25352.25003472 -.01409571  00000+0 -83917-2 0  9990", "line2": "2 66884  53.1551  46.0822 0000820  91.1417 306.0859 15.79924155  3315"}}, "geometry": {"type": "Point", "coordinates": [-125.71642480368673, -13.33793397533339]}}, {"type": "Feature", "properties": {"norad_id": 66885, "name": "STARLINK-35954", "group": "last-30-days", "lat": -11.517271381135483, "lon": -127.16338655911557, "alt_km": 336.6300723391196, "timestamp": "2025-12-18T15:47:09.961284+00:00", "meta": {"OBJECT_NAME": "STARLINK-35954", "OBJECT_ID": "2025-283H", "EPOCH": "2025-12-18T06:00:02.999808", "MEAN_MOTION": 15.79971347, "ECCENTRICITY": 9.319e-05, "INCLINATION": 53.1551, "RA_OF_ASC_NODE": 46.0871, "ARG_OF_PERICENTER": 82.3323, "MEAN_ANOMALY": 312.5102, "EPHEMERIS_TYPE": 0, "CLASSIFICATION_TYPE": "U", "NORAD_CAT_ID": 66885, "ELEMENT_SET_NO": 999, "REV_AT_EPOCH": 331, "BSTAR": -0.0083109899, "MEAN_MOTION_DOT": -0.01400289, "MEAN_MOTION_DDOT": 0}, "tle": {"line1": "1 66885U 25283H   25352.25003472 -.01400289  00000+0 -83110-2 0  9993", "line2": "2 66885  53.1551  46.0871 0000931  82.3323 312.5102 15.79971347  3319"}}, "geometry": {"type": "Point", "coordinates": [-127.16338655911557, -11.517271381135483]}}, {"type": "Feature", "properties": {"norad_id": 66886, "name": "STARLINK-35900", "group": "last-30-days", "lat": -15.362570254739541, "lon": -124.07346495708877, "alt_km": 337.46771826271925, "timestamp": "2025-12-18T15:47:09.961294+00:00", "meta": {"OBJECT_NAME": "STARLINK-35900", "OBJECT_ID": "2025-283J", "EPOCH": "2025-12-18T06:00:02.999808", "MEAN_MOTION": 15.79835766, "ECCENTRICITY": 0.0001013, "INCLINATION": 53.1551, "RA_OF_ASC_NODE": 46.0764, "ARG_OF_PERICENTER": 73.1789, "MEAN_ANOMALY": 326.7644, "EPHEMERIS_TYPE": 0, "CLASSIFICATION_TYPE": "U", "NORAD_CAT_ID": 66886, "ELEMENT_SET_NO": 999, "REV_AT_EPOCH": 331, "BSTAR": -0.008493312, "MEAN_MOTION_DOT": -0.01419678, "MEAN_MOTION_DDOT": 0}, "tle": {"line1": "1 66886U 25283J   25352.25003472 -.01419678  00000+0 -84933-2 0  9990", "line2": "2 66886  53.1551  46.0764 0001013  73.1789 326.7644 15.79835766  3319"}}, "geometry": {"type": "Point", "coordinates": [-124.07346495708877, -15.362570254739541]}}]}